ONEWEB-0415             
1 51624U 22012C   24237.06650837 -.00000536  00000+0 -15718-2 0  9997
2 51624  87.8985 168.0062 0002121  85.7287 274.4083 13.10370735123858
ONEWEB-0416             
1 51625U 22012D   24237.07812164 -.00000402  00000+0 -11876-2 0  9995
2 51625  87.8996 168.0026 0002070  74.8187 285.3169 13.10372930123903
ONEWEB-0422             
1 51626U 22012E   24237.21533830  .00000073  00000+0  15409-3 0  9991
2 51626  87.9175 137.6926 0001092  72.5189 287.6062 13.17649929127919
ONEWEB-0423             
1 51627U 22012F   24237.20887633  .00000096  00000+0  21301-3 0  9997
2 51627  87.9179 137.6960 0001869  72.8800 287.2536 13.17647860127810
ONEWEB-0425             
1 51628U 22012G   24236.55359214  .00000027  00000+0  41475-4 0  9993
2 51628  87.8991 168.0873 0002221  67.5622 292.5740 13.10377792122547
ONEWEB-0428             
1 51629U 22012H   24237.06816740 -.00000617  00000+0 -18042-2 0  9992
2 51629  87.8990 168.0022 0001758  83.0711 277.0616 13.10371077123854
ONEWEB-0431             
1 51630U 22012J   24236.50367078  .00000570  00000+0  15953-2 0  9991
2 51630  87.8981 168.1063 0001806  97.2811 262.8522 13.10370506122554
ONEWEB-0434             
1 51631U 22012K   24237.09143439  .00000146  00000+0  38250-3 0  9995
2 51631  87.8995 168.0094 0001838  73.7646 286.3683 13.10377509123902
